[{"OBJECT_NAME":"STARLINK-33601","OBJECT_ID":"2025-015L","EPOCH":"2026-03-09T21:30:01.528992","MEAN_MOTION":15.30238028,"ECCENTRICITY":0.00020816,"INCLINATION":53.162,"RA_OF_ASC_NODE":321.431,"ARG_OF_PERICENTER":149.2895,"MEAN_ANOMALY":210.8228,"EPHEMERIS_TYPE":0,"CLASSIFICATION_TYPE":"U","NORAD_CAT_ID":62768,"ELEMENT_SET_NO":999,"REV_AT_EPOCH":6451,"BSTAR":0.001463407,"MEAN_MOTION_DOT":0.00043288,"MEAN_MOTION_DDOT":0},{"OBJECT_NAME":"ATLAS 5 CENTAUR R\/B","OBJECT_ID":"2013-072P","EPOCH":"2026-03-09T21:36:10.628064","MEAN_MOTION":14.96443736,"ECCENTRICITY":0.0189428,"INCLINATION":120.4328,"RA_OF_ASC_NODE":111.5185,"ARG_OF_PERICENTER":160.796,"MEAN_ANOMALY":200.0359,"EPHEMERIS_TYPE":0,"CLASSIFICATION_TYPE":"U","NORAD_CAT_ID":39475,"ELEMENT_SET_NO":999,"REV_AT_EPOCH":9970,"BSTAR":0.00054929733,"MEAN_MOTION_DOT":8.701e-5,"MEAN_MOTION_DDOT":0}]
